{
  "type": "FeatureCollection",
  "features": [
    {
      "type": "Feature",
      "properties": {
        "norad_id": 34366,
        "name": "IRIDIUM 33 DEB",
        "group": "iridium-33-debris",
        "lat": -77.61446025047778,
        "lon": 26.79351211439926,
        "alt_km": 735.8723816457914,
        "timestamp": "2025-12-25T20:42:39.073084+00:00",
        "meta_object_name": "IRIDIUM 33 DEB",
        "meta_object_id": "1997-051FJ",
        "meta_epoch": "2025-12-25T03:10:17.908608",
        "meta_mean_motion": 14.54149809,
        "meta_eccentricity": 0.00230656,
        "meta_inclination": 86.3683,
        "meta_ra_of_asc_node": 43.9225,
        "meta_arg_of_pericenter": 101.255,
        "meta_mean_anomaly": 317.3929,
        "meta_ephemeris_type": 0,
        "meta_classification_type": "U",
        "meta_norad_cat_id": 34366,
        "meta_element_set_no": 999,
        "meta_rev_at_epoch": 88362,
        "meta_bstar": 0.00093969589,
        "meta_mean_motion_dot": 4.007e-05,
        "meta_mean_motion_ddot": 0,
        "tle_line1": "1 34366U 97051FJ  25359.13215172  .00004007  00000+0  93970-3 0  9991",
        "tle_line2": "2 34366  86.3683  43.9225 0023065 101.2550 317.3929 14.54149809883629"
      },
      "geometry": {
        "type": "Point",
        "coordinates": [
          26.79351211439926,
          -77.61446025047778
        ]
      }
    },
    {
      "type": "Feature",
      "properties": {
        "norad_id": 34375,
        "name": "IRIDIUM 33 DEB",
        "group": "iridium-33-debris",
        "lat": -66.5184085111222,
        "lon": 169.1548699433901,
        "alt_km": 905.4752071647035,
        "timestamp": "2025-12-25T20:42:39.073094+00:00",
        "meta_object_name": "IRIDIUM 33 DEB",
        "meta_object_id": "1997-051FT",
        "meta_epoch": "2025-12-24T13:09:42.393312",
        "meta_mean_motion": 14.18013041,
        "meta_eccentricity": 0.01036939,
        "meta_inclination": 86.4324,
        "meta_ra_of_asc_node": 177.9413,
        "meta_arg_of_pericenter": 89.8064,
        "meta_mean_anomaly": 337.6478,
        "meta_ephemeris_type": 0,
        "meta_classification_type": "U",
        "meta_norad_cat_id": 34375,
        "meta_element_set_no": 999,
        "meta_rev_at_epoch": 86879,
        "meta_bstar": 0.00038925605,
        "meta_mean_motion_dot": 8.6e-06,
        "meta_mean_motion_ddot": 0,
        "tle_line1": "1 34375U 97051FT  25358.54840733  .00000860  00000+0  38926-3 0  9995",
        "tle_line2": "2 34375  86.4324 177.9413 0103693  89.8064 337.6478 14.18013041868799"
      },
      "geometry": {
        "type": "Point",
        "coordinates": [
          169.1548699433901,
          -66.5184085111222
        ]
      }
    },
    {
      "type": "Feature",
      "properties": {
        "norad_id": 34376,
        "name": "IRIDIUM 33 DEB",
        "group": "iridium-33-debris",
        "lat": -72.51011005416417,
        "lon": -167.50496715293917,
        "alt_km": 704.4151863134994,
        "timestamp": "2025-12-25T20:42:39.073105+00:00",
        "meta_object_name": "IRIDIUM 33 DEB",
        "meta_object_id": "1997-051FU",
        "meta_epoch": "2025-12-24T17:17:28.891392",
        "meta_mean_motion": 14.62726881,
        "meta_eccentricity": 0.00284367,
        "meta_inclination": 86.2983,
        "meta_ra_of_asc_node": 1.1525,
        "meta_arg_of_pericenter": 127.427,
        "meta_mean_anomaly": 232.9536,
        "meta_ephemeris_type": 0,
        "meta_classification_type": "U",
        "meta_norad_cat_id": 34376,
        "meta_element_set_no": 999,
        "meta_rev_at_epoch": 88182,
        "meta_bstar": 0.001533236,
        "meta_mean_motion_dot": 7.879e-05,
        "meta_mean_motion_ddot": 0,
        "tle_line1": "1 34376U 97051FU  25358.72047328  .00007879  00000+0  15332-2 0  9997",
        "tle_line2": "2 34376  86.2983   1.1525 0028436 127.4270 232.9536 14.62726881881823"
      },
      "geometry": {
        "type": "Point",
        "coordinates": [
          -167.50496715293917,
          -72.51011005416417
        ]
      }
    },
    {
      "type": "Feature",
      "properties": {
        "norad_id": 34486,
        "name": "IRIDIUM 33 DEB",
        "group": "iridium-33-debris",
        "lat": -65.98058183803865,
        "lon": -165.89762610414843,
        "alt_km": 595.0043320789937,
        "timestamp": "2025-12-25T20:42:39.073115+00:00",
        "meta_object_name": "IRIDIUM 33 DEB",
        "meta_object_id": "1997-051GB",
        "meta_epoch": "2025-12-25T00:37:54.079968",
        "meta_mean_motion": 14.96343831,
        "meta_eccentricity": 0.00139263,
        "meta_inclination": 86.3927,
        "meta_ra_of_asc_node": 6.3505,
        "meta_arg_of_pericenter": 77.1371,
        "meta_mean_anomaly": 345.1721,
        "meta_ephemeris_type": 0,
        "meta_classification_type": "U",
        "meta_norad_cat_id": 34486,
        "meta_element_set_no": 999,
        "meta_rev_at_epoch": 89170,
        "meta_bstar": 0.0022973731,
        "meta_mean_motion_dot": 0.00026127,
        "meta_mean_motion_ddot": 0,
        "tle_line1": "1 34486U 97051GB  25359.02632037  .00026127  00000+0  22974-2 0  9997",
        "tle_line2": "2 34486  86.3927   6.3505 0013926  77.1371 345.1721 14.96343831891708"
      },
      "geometry": {
        "type": "Point",
        "coordinates": [
          -165.89762610414843,
          -65.98058183803865
        ]
      }
    },
    {
      "type": "Feature",
      "properties": {
        "norad_id": 34487,
        "name": "IRIDIUM 33 DEB",
        "group": "iridium-33-debris",
        "lat": -71.8917859799432,
        "lon": -4.552038647659137,
        "alt_km": 777.4454926360022,
        "timestamp": "2025-12-25T20:42:39.073125+00:00",
        "meta_object_name": "IRIDIUM 33 DEB",
        "meta_object_id": "1997-051GC",
        "meta_epoch": "2025-12-25T01:19:57.963072",
        "meta_mean_motion": 14.43231551,
        "meta_eccentricity": 0.00332623,
        "meta_inclination": 86.3429,
        "meta_ra_of_asc_node": 7.0742,
        "meta_arg_of_pericenter": 90.1032,
        "meta_mean_anomaly": 325.4273,
        "meta_ephemeris_type": 0,
        "meta_classification_type": "U",
        "meta_norad_cat_id": 34487,
        "meta_element_set_no": 999,
        "meta_rev_at_epoch": 88426,
        "meta_bstar": 0.0001885437,
        "meta_mean_motion_dot": 6.59e-06,
        "meta_mean_motion_ddot": 0,
        "tle_line1": "1 34487U 97051GC  25359.05553198  .00000659  00000+0  18854-3 0  9996",
        "tle_line2": "2 34487  86.3429   7.0742 0033262  90.1032 325.4273 14.43231551884264"
      },
      "geometry": {
        "type": "Point",
        "coordinates": [
          -4.552038647659137,
          -71.8917859799432
        ]
      }
    },
    {
      "type": "Feature",
      "properties": {
        "norad_id": 34488,
        "name": "IRIDIUM 33 DEB",
        "group": "iridium-33-debris",
        "lat": 77.61106055051305,
        "lon": -43.688799706500234,
        "alt_km": 456.23963610250485,
        "timestamp": "2025-12-25T20:42:39.073135+00:00",
        "meta_object_name": "IRIDIUM 33 DEB",
        "meta_object_id": "1997-051GD",
        "meta_epoch": "2025-12-24T20:52:00.225120",
        "meta_mean_motion": 15.32501741,
        "meta_eccentricity": 0.0009278,
        "meta_inclination": 86.3252,
        "meta_ra_of_asc_node": 299.7925,
        "meta_arg_of_pericenter": 31.7639,
        "meta_mean_anomaly": 328.4168,
        "meta_ephemeris_type": 0,
        "meta_classification_type": "U",
        "meta_norad_cat_id": 34488,
        "meta_element_set_no": 999,
        "meta_rev_at_epoch": 89425,
        "meta_bstar": 0.0047265,
        "meta_mean_motion_dot": 0.0015116,
        "meta_mean_motion_ddot": 0,
        "tle_line1": "1 34488U 97051GD  25358.86944705  .00151160  00000+0  47265-2 0  9994",
        "tle_line2": "2 34488  86.3252 299.7925 0009278  31.7639 328.4168 15.32501741894252"
      },
      "geometry": {
        "type": "Point",
        "coordinates": [
          -43.688799706500234,
          77.61106055051305
        ]
      }
    },
    {
      "type": "Feature",
      "properties": {
        "norad_id": 34492,
        "name": "IRIDIUM 33 DEB",
        "group": "iridium-33-debris",
        "lat": -79.52573081285311,
        "lon": -50.16437746568568,
        "alt_km": 796.8464622436923,
        "timestamp": "2025-12-25T20:42:39.073145+00:00",
        "meta_object_name": "IRIDIUM 33 DEB",
        "meta_object_id": "1997-051GH",
        "meta_epoch": "2025-12-24T21:39:21.521088",
        "meta_mean_motion": 14.25932668,
        "meta_eccentricity": 0.0188786,
        "meta_inclination": 86.473,
        "meta_ra_of_asc_node": 329.7114,
        "meta_arg_of_pericenter": 198.6425,
        "meta_mean_anomaly": 190.963,
        "meta_ephemeris_type": 0,
        "meta_classification_type": "U",
        "meta_norad_cat_id": 34492,
        "meta_element_set_no": 999,
        "meta_rev_at_epoch": 85232,
        "meta_bstar": 0.0029502,
        "meta_mean_motion_dot": 8.501e-05,
        "meta_mean_motion_ddot": 0,
        "tle_line1": "1 34492U 97051GH  25358.90233242  .00008501  00000+0  29502-2 0  9995",
        "tle_line2": "2 34492  86.4730 329.7114 0188786 198.6425 190.9630 14.25932668852326"
      },
      "geometry": {
        "type": "Point",
        "coordinates": [
          -50.16437746568568,
          -79.52573081285311
        ]
      }
    }
  ]
}